start=new Date('2022-11-25T00:00:00.000Z').valueOf();
sats=[{"NORAD_CAT_ID":"46550","ECCENTRICITY":"0.00022580","REF_FRAME":"TEME","MEAN_MOTION_DDOT":"0.0000000000000","EPHEMERIS_TYPE":"0","COUNTRY_CODE":"US","OBJECT_NAME":"STARLINK-1701","EPOCH":"2022-11-24T20:01:16.877568","RA_OF_ASC_NODE":"167.4729","BSTAR":"0.00003658600000","RCS_SIZE":"LARGE","CENTER_NAME":"EARTH","GP_ID":"218720706","DECAY_DATE":null,"PERIAPSIS":"545.667","TLE_LINE2":"2 46550  53.0536 167.4729 0002258  55.0318 305.0883 15.06394361118509","INCLINATION":"53.0536","APOAPSIS":"548.795","SITE":"AFETR","MEAN_ANOMALY":"305.0883","ARG_OF_PERICENTER":"55.0318","MEAN_ELEMENT_THEORY":"SGP4","TIME_SYSTEM":"UTC","TLE_LINE1":"1 46550U 20070U   22328.83422312  .00000263  00000-0  36586-4 0  9994","ELEMENT_SET_NO":"999","SEMIMAJOR_AXIS":"6925.366","CLASSIFICATION_TYPE":"U","REV_AT_EPOCH":"11850","MEAN_MOTION_DOT":"0.00000263","FILE":"3669335","OBJECT_TYPE":"PAYLOAD","LAUNCH_DATE":"2020-10-06","OBJECT_ID":"2020-070U","MEAN_MOTION":"15.06394361","PERIOD":"95.592"},{"ELEMENT_SET_NO":"999","TLE_LINE1":"1 46552U 20070W   22328.42854641  .00038687  00000-0  51659-3 0  9993","ARG_OF_PERICENTER":"183.0793","MEAN_ANOMALY":"177.0199","TIME_SYSTEM":"UTC","MEAN_ELEMENT_THEORY":"SGP4","TLE_LINE2":"2 46552  53.0486 123.4548 0003319 183.0793 177.0199 15.57710422119092","APOAPSIS":"396.535","SITE":"AFETR","INCLINATION":"53.0486","PERIAPSIS":"392.039","OBJECT_TYPE":"PAYLOAD","MEAN_MOTION":"15.57710422","PERIOD":"92.443","OBJECT_ID":"2020-070W","LAUNCH_DATE":"2020-10-06","FILE":"3669022","MEAN_MOTION_DOT":"0.00038687","REV_AT_EPOCH":"11909","CLASSIFICATION_TYPE":"U","SEMIMAJOR_AXIS":"6772.422","COUNTRY_CODE":"US","EPHEMERIS_TYPE":"0","OBJECT_NAME":"STARLINK-1649","ECCENTRICITY":"0.00033190","REF_FRAME":"TEME","MEAN_MOTION_DDOT":"0.0000000000000","NORAD_CAT_ID":"46552","GP_ID":"218664382","DECAY_DATE":null,"RA_OF_ASC_NODE":"123.4548","CENTER_NAME":"EARTH","RCS_SIZE":"LARGE","BSTAR":"0.00051659000000","EPOCH":"2022-11-24T10:17:06.409824"},{"TLE_LINE2":"2 46553  53.0551 137.8423 0001696  75.3186 284.7990 15.06404476118910","SITE":"AFETR","APOAPSIS":"548.374","INCLINATION":"53.0551","PERIAPSIS":"546.025","ELEMENT_SET_NO":"999","TLE_LINE1":"1 46553U 20070X   22328.75589191  .00001320  00000-0  10749-3 0  9994","ARG_OF_PERICENTER":"75.3186","MEAN_ANOMALY":"284.7990","TIME_SYSTEM":"UTC","MEAN_ELEMENT_THEORY":"SGP4","MEAN_MOTION_DOT":"0.00001320","CLASSIFICATION_TYPE":"U","REV_AT_EPOCH":"11891","SEMIMAJOR_AXIS":"6925.335","OBJECT_TYPE":"PAYLOAD","PERIOD":"95.592","MEAN_MOTION":"15.06404476","LAUNCH_DATE":"2020-10-06","OBJECT_ID":"2020-070X","FILE":"3669335","NORAD_CAT_ID":"46553","COUNTRY_CODE":"US","EPHEMERIS_TYPE":"0","OBJECT_NAME":"STARLINK-1664","ECCENTRICITY":"0.00016960","REF_FRAME":"TEME","MEAN_MOTION_DDOT":"0.0000000000000","RA_OF_ASC_NODE":"137.8423","CENTER_NAME":"EARTH","BSTAR":"0.00010749000000","RCS_SIZE":"LARGE","EPOCH":"2022-11-24T18:08:29.061024","GP_ID":"218721701","DECAY_DATE":null},{"NORAD_CAT_ID":"46554","MEAN_MOTION_DDOT":"0.0000000000000","REF_FRAME":"TEME","ECCENTRICITY":"0.00017190","OBJECT_NAME":"STARLINK-1671","EPHEMERIS_TYPE":"0","COUNTRY_CODE":"US","EPOCH":"2022-11-24T17:47:55.503168","CENTER_NAME":"EARTH","RCS_SIZE":"LARGE","BSTAR":"0.00009638300000","RA_OF_ASC_NODE":"152.8803","DECAY_DATE":null,"GP_ID":"218719958","PERIAPSIS":"546.046","SITE":"AFETR","APOAPSIS":"548.427","INCLINATION":"53.0544","TLE_LINE2":"2 46554  53.0544 152.8803 0001719  72.9284 287.1893 15.06392496118704","TIME_SYSTEM":"UTC","MEAN_ELEMENT_THEORY":"SGP4","ARG_OF_PERICENTER":"72.9284","MEAN_ANOMALY":"287.1893","ELEMENT_SET_NO":"999","TLE_LINE1":"1 46554U 20070Y   22328.74161462  .00001154  00000-0  96383-4 0  9995","CLASSIFICATION_TYPE":"U","REV_AT_EPOCH":"11870","SEMIMAJOR_AXIS":"6925.372","MEAN_MOTION_DOT":"0.00001154","FILE":"3669335","PERIOD":"95.593","MEAN_MOTION":"15.06392496","LAUNCH_DATE":"2020-10-06","OBJECT_ID":"2020-070Y","OBJECT_TYPE":"PAYLOAD"},{"FILE":"3669335","OBJECT_ID":"2020-070AA","LAUNCH_DATE":"2020-10-06","MEAN_MOTION":"15.06398477","PERIOD":"95.592","OBJECT_TYPE":"PAYLOAD","SEMIMAJOR_AXIS":"6925.353","REV_AT_EPOCH":"11849","CLASSIFICATION_TYPE":"U","MEAN_MOTION_DOT":"0.00001023","MEAN_ELEMENT_THEORY":"SGP4","TIME_SYSTEM":"UTC","MEAN_ANOMALY":"296.1038","ARG_OF_PERICENTER":"64.0125","TLE_LINE1":"1 46556U 20070AA  22328.73469265  .00001023  00000-0  87587-4 0  9999","ELEMENT_SET_NO":"999","PERIAPSIS":"546.044","INCLINATION":"53.0538","SITE":"AFETR","APOAPSIS":"548.392","TLE_LINE2":"2 46556  53.0538 167.9062 0001695  64.0125 296.1038 15.06398477118494","DECAY_DATE":null,"GP_ID":"218720208","EPOCH":"2022-11-24T17:37:57.444960","BSTAR":"0.00008758700000","RCS_SIZE":"LARGE","CENTER_NAME":"EARTH","RA_OF_ASC_NODE":"167.9062","MEAN_MOTION_DDOT":"0.0000000000000","REF_FRAME":"TEME","ECCENTRICITY":"0.00016950","OBJECT_NAME":"STARLINK-1676","COUNTRY_CODE":"US","EPHEMERIS_TYPE":"0","NORAD_CAT_ID":"46556"},{"OBJECT_NAME":"STARLINK-1679","EPHEMERIS_TYPE":"0","COUNTRY_CODE":"US","MEAN_MOTION_DDOT":"0.0000000000000","REF_FRAME":"TEME","ECCENTRICITY":"0.00017190","NORAD_CAT_ID":"46557","DECAY_DATE":null,"GP_ID":"218721457","CENTER_NAME":"EARTH","RCS_SIZE":"LARGE","BSTAR":"0.00008285000000","RA_OF_ASC_NODE":"152.7265","EPOCH":"2022-11-24T18:41:01.374432","ELEMENT_SET_NO":"999","TLE_LINE1":"1 46557U 20070AB  22328.77848813  .00000952  00000-0  82850-4 0  9992","TIME_SYSTEM":"UTC","MEAN_ELEMENT_THEORY":"SGP4","ARG_OF_PERICENTER":"68.9230","MEAN_ANOMALY":"291.1943","APOAPSIS":"548.444","SITE":"AFETR","INCLINATION":"53.0539","TLE_LINE2":"2 46557  53.0539 152.7265 0001719  68.9230 291.1943 15.06386808118710","PERIAPSIS":"546.064","MEAN_MOTION":"15.06386808","PERIOD":"95.593","LAUNCH_DATE":"2020-10-06","OBJECT_ID":"2020-070AB","OBJECT_TYPE":"PAYLOAD","FILE":"3669335","MEAN_MOTION_DOT":"0.00000952","REV_AT_EPOCH":"11871","CLASSIFICATION_TYPE":"U","SEMIMAJOR_AXIS":"6925.389"},{"NORAD_CAT_ID":"46558","COUNTRY_CODE":"US","EPHEMERIS_TYPE":"0","OBJECT_NAME":"STARLINK-1680","ECCENTRICITY":"0.00014590","REF_FRAME":"TEME","MEAN_MOTION_DDOT":"0.0000000000000","RA_OF_ASC_NODE":"152.6933","CENTER_NAME":"EARTH","BSTAR":"0.00007853000000","RCS_SIZE":"LARGE","EPOCH":"2022-11-24T18:51:37.548864","GP_ID":"218721202","DECAY_DATE":null,"TLE_LINE2":"2 46558  53.0544 152.6933 0001459  77.9773 282.1379 15.06394453118685","APOAPSIS":"548.241","SITE":"AFETR","INCLINATION":"53.0544","PERIAPSIS":"546.220","ELEMENT_SET_NO":"999","TLE_LINE1":"1 46558U 20070AC  22328.78585126  .00000888  00000-0  78530-4 0  9997","ARG_OF_PERICENTER":"77.9773","MEAN_ANOMALY":"282.1379","TIME_SYSTEM":"UTC","MEAN_ELEMENT_THEORY":"SGP4","MEAN_MOTION_DOT":"0.00000888","REV_AT_EPOCH":"11868","CLASSIFICATION_TYPE":"U","SEMIMAJOR_AXIS":"6925.366","OBJECT_TYPE":"PAYLOAD","PERIOD":"95.592","MEAN_MOTION":"15.06394453","LAUNCH_DATE":"2020-10-06","OBJECT_ID":"2020-070AC","FILE":"3669335"},{"OBJECT_NAME":"STARLINK-1681","COUNTRY_CODE":"US","EPHEMERIS_TYPE":"0","MEAN_MOTION_DDOT":"0.0000000000000","REF_FRAME":"TEME","ECCENTRICITY":"0.00019220","NORAD_CAT_ID":"46559","DECAY_DATE":null,"GP_ID":"218720457","CENTER_NAME":"EARTH","RCS_SIZE":"LARGE","BSTAR":"0.00009227000000","RA_OF_ASC_NODE":"137.7365","EPOCH":"2022-11-24T18:33:39.533472","ELEMENT_SET_NO":"999","TLE_LINE1":"1 46559U 20070AD  22328.77337423  .00001093  00000-0  92270-4 0  9998","TIME_SYSTEM":"UTC","MEAN_ELEMENT_THEORY":"SGP4","ARG_OF_PERICENTER":"69.1382","MEAN_ANOMALY":"290.9813","APOAPSIS":"548.528","SITE":"AFETR","INCLINATION":"53.0542","TLE_LINE2":"2 46559  53.0542 137.7365 0001922  69.1382 290.9813 15.06405413118916","PERIAPSIS":"545.866","PERIOD":"95.592","MEAN_MOTION":"15.06405413","LAUNCH_DATE":"2020-10-06","OBJECT_ID":"2020-070AD","OBJECT_TYPE":"PAYLOAD","FILE":"3669335","MEAN_MOTION_DOT":"0.00001093","CLASSIFICATION_TYPE":"U","REV_AT_EPOCH":"11891","SEMIMAJOR_AXIS":"6925.332"},{"OBJECT_NAME":"STARLINK-1706","COUNTRY_CODE":"US","EPHEMERIS_TYPE":"0","REF_FRAME":"TEME","MEAN_MOTION_DDOT":"0.0000000000000","ECCENTRICITY":"0.00014660","NORAD_CAT_ID":"46560","DECAY_DATE":null,"GP_ID":"218720707","CENTER_NAME":"EARTH","BSTAR":"0.00012216000000","RCS_SIZE":"LARGE","RA_OF_ASC_NODE":"152.3279","EPOCH":"2022-11-24T20:48:24.568128","ELEMENT_SET_NO":"999","TLE_LINE1":"1 46560U 20070AE  22328.86695102  .00001539  00000-0  12216-3 0  9997","TIME_SYSTEM":"UTC","MEAN_ELEMENT_THEORY":"SGP4","ARG_OF_PERICENTER":"61.7259","MEAN_ANOMALY":"298.3878","APOAPSIS":"548.202","SITE":"AFETR","INCLINATION":"53.0541","TLE_LINE2":"2 46560  53.0541 152.3279 0001466  61.7259 298.3878 15.06408735118720","PERIAPSIS":"546.172","PERIOD":"95.592","MEAN_MOTION":"15.06408735","LAUNCH_DATE":"2020-10-06","OBJECT_ID":"2020-070AE","OBJECT_TYPE":"PAYLOAD","FILE":"3669335","MEAN_MOTION_DOT":"0.00001539","CLASSIFICATION_TYPE":"U","REV_AT_EPOCH":"11872","SEMIMAJOR_AXIS":"6925.322"},{"TLE_LINE2":"2 46561  53.0556 152.8549 0001518  85.0129 275.1033 15.06385390118700","INCLINATION":"53.0556","SITE":"AFETR","APOAPSIS":"548.310","PERIAPSIS":"546.207","TLE_LINE1":"1 46561U 20070AF  22328.75174378  .00001035  00000-0  88394-4 0  9995","ELEMENT_SET_NO":"999","MEAN_ANOMALY":"275.1033","ARG_OF_PERICENTER":"85.0129","MEAN_ELEMENT_THEORY":"SGP4","TIME_SYSTEM":"UTC","MEAN_MOTION_DOT":"0.00001035","SEMIMAJOR_AXIS":"6925.393","REV_AT_EPOCH":"11870","CLASSIFICATION_TYPE":"U","OBJECT_TYPE":"PAYLOAD","OBJECT_ID":"2020-070AF","LAUNCH_DATE":"2020-10-06","MEAN_MOTION":"15.06385390","PERIOD":"95.593","FILE":"3669335","NORAD_CAT_ID":"46561","COUNTRY_CODE":"US","EPHEMERIS_TYPE":"0","OBJECT_NAME":"STARLINK-1709","ECCENTRICITY":"0.00015180","MEAN_MOTION_DDOT":"0.0000000000000","REF_FRAME":"TEME","RA_OF_ASC_NODE":"152.8549","RCS_SIZE":"LARGE","BSTAR":"0.00008839400000","CENTER_NAME":"EARTH","EPOCH":"2022-11-24T18:02:30.662592","GP_ID":"218720958","DECAY_DATE":null}];
